{"type": "FeatureCollection", "features": [ {"type": "Feature", "properties": {"norad_id": 66667, "name": "PELICAN-5", "group": "last-30-days", "lat": -30.09530296516274, "lon": 74.77176181400694, "alt_km": 519.8974689015768, "timestamp": "2025-12-24T20:42:19.744577+00:00", "meta": {"OBJECT_NAME": "PELICAN-5", "OBJECT_ID": "2025-276B", "EPOCH": "2025-12-24T05:00:53.295552", "MEAN_MOTION": 15.17615125, "ECCENTRICITY": 0.00022153, "INCLINATION": 97.4411, "RA_OF_ASC_NODE": 69.7851, "ARG_OF_PERICENTER": 208.2187, "MEAN_ANOMALY": 151.8927, "EPHEMERIS_TYPE": 0, "CLASSIFICATION_TYPE": "U", "NORAD_CAT_ID": 66667, "ELEMENT_SET_NO": 999, "REV_AT_EPOCH": 386, "BSTAR": 0.00047985567, "MEAN_MOTION_DOT": 9.589e-05, "MEAN_MOTION_DDOT": 0}, "tle": {"line1": "1 66667U 25276B   25358.20895018  .00009589  00000+0  47986-3 0  9996", "line2": "2 66667  97.4411  69.7851 0002215 208.2187 151.8927 15.17615125  3867"}}, "geometry": {"type": "Point", "coordinates": [74.77176181400694, -30.09530296516274]}}, {"type": "Feature", "properties": {"norad_id": 66668, "name": "TRANSPORTER-15C", "group": "last-30-days", "lat": -32.42111946277838, "lon": 75.13858487020751, "alt_km": 464.4925922489492, "timestamp": "2025-12-24T20:42:19.744587+00:00", "meta": {"OBJECT_NAME": "TRANSPORTER-15C", "OBJECT_ID": "2025-276C", "EPOCH": "2025-12-22T16:55:56.699040", "MEAN_MOTION": 15.2172719, "ECCENTRICITY": 0.00267972, "INCLINATION": 97.4316, "RA_OF_ASC_NODE": 68.2383, "ARG_OF_PERICENTER": 290.281, "MEAN_ANOMALY": 69.5546, "EPHEMERIS_TYPE": 0, "CLASSIFICATION_TYPE": "U", "NORAD_CAT_ID": 66668, "ELEMENT_SET_NO": 999, "REV_AT_EPOCH": 363, "BSTAR": 0.088401316, "MEAN_MOTION_DOT": 0.02259996, "MEAN_MOTION_DDOT": 0}, "tle": {"line1": "1 66668U 25276C   25356.70551735  .02259996  00000+0  88401-1 0  9991", "line2": "2 66668  97.4316  68.2383 0026797 290.2810  69.5546 15.21727190  3639"}}, "geometry": {"type": "Point", "coordinates": [75.13858487020751, -32.42111946277838]}}, {"type": "Feature", "properties": {"norad_id": 66669, "name": "TRANSPORTER-15D", "group": "last-30-days", "lat": -13.254212897527234, "lon": -111.27507555988008, "alt_km": 420.15794748013286, "timestamp": "2025-12-24T20:42:19.744597+00:00", "meta": {"OBJECT_NAME": "TRANSPORTER-15D", "OBJECT_ID": "2025-276D", "EPOCH": "2025-12-21T02:39:18.210816", "MEAN_MOTION": 15.34134881, "ECCENTRICITY": 0.00748198, "INCLINATION": 97.4314, "RA_OF_ASC_NODE": 66.7079, "ARG_OF_PERICENTER": 232.3102, "MEAN_ANOMALY": 127.1341, "EPHEMERIS_TYPE": 0, "CLASSIFICATION_TYPE": "U", "NORAD_CAT_ID": 66669, "ELEMENT_SET_NO": 999, "REV_AT_EPOCH": 339, "BSTAR": 0.0027830351, "MEAN_MOTION_DOT": 0.00101698, "MEAN_MOTION_DDOT": 0}, "tle": {"line1": "1 66669U 25276D   25355.11062744  .00101698  00000+0  27830-2 0  9996", "line2": "2 66669  97.4314  66.7079 0074819 232.3102 127.1341 15.34134881  3392"}}, "geometry": {"type": "Point", "coordinates": [-111.27507555988008, -13.254212897527234]}}, {"type": "Feature", "properties": {"norad_id": 66670, "name": "HUNITY", "group": "last-30-days", "lat": -54.583971352391124, "lon": -120.2197689607846, "alt_km": 532.6374169285764, "timestamp": "2025-12-24T20:42:19.744609+00:00", "meta": {"OBJECT_NAME": "HUNITY", "OBJECT_ID": "2025-276E", "EPOCH": "2025-12-23T13:32:41.599104", "MEAN_MOTION": 15.14778724, "ECCENTRICITY": 0.00045159, "INCLINATION": 97.4308, "RA_OF_ASC_NODE": 69.0882, "ARG_OF_PERICENTER": 49.7951, "MEAN_ANOMALY": 310.3676, "EPHEMERIS_TYPE": 0, "CLASSIFICATION_TYPE": "U", "NORAD_CAT_ID": 66670, "ELEMENT_SET_NO": 999, "REV_AT_EPOCH": 376, "BSTAR": -0.0059587969, "MEAN_MOTION_DOT": -0.00108931, "MEAN_MOTION_DDOT": 0}, "tle": {"line1": "1 66670U 25276E   25357.56437036 -.00108931  00000+0 -59588-2 0  9993", "line2": "2 66670  97.4308  69.0882 0004515  49.7951 310.3676 15.14778724  3769"}}, "geometry": {"type": "Point", "coordinates": [-120.2197689607846, -54.583971352391124]}}, {"type": "Feature", "properties": {"norad_id": 66671, "name": "TRANSPORTER-15F", "group": "last-30-days", "lat": -81.06536267954682, "lon": -165.84158452186463, "alt_km": 518.4388002656633, "timestamp": "2025-12-24T20:42:19.744620+00:00", "meta": {"OBJECT_NAME": "TRANSPORTER-15F", "OBJECT_ID": "2025-276F", "EPOCH": "2025-12-24T05:17:39.362208", "MEAN_MOTION": 15.17145624, "ECCENTRICITY": 0.0005185, "INCLINATION": 97.4417, "RA_OF_ASC_NODE": 69.7704, "ARG_OF_PERICENTER": 246.4648, "MEAN_ANOMALY": 113.6041, "EPHEMERIS_TYPE": 0, "CLASSIFICATION_TYPE": "U", "NORAD_CAT_ID": 66671, "ELEMENT_SET_NO": 999, "REV_AT_EPOCH": 386, "BSTAR": 0.00072887344, "MEAN_MOTION_DOT": 0.00014417, "MEAN_MOTION_DDOT": 0}, "tle": {"line1": "1 66671U 25276F   25358.22059447  .00014417  00000+0  72887-3 0  9995", "line2": "2 66671  97.4417  69.7704 0005185 246.4648 113.6041 15.17145624  3865"}}, "geometry": {"type": "Point", "coordinates": [-165.84158452186463, -81.06536267954682]}}, {"type": "Feature", "properties": {"norad_id": 66672, "name": "TRANSPORTER-15G", "group": "last-30-days", "lat": -54.58073163582472, "lon": -120.20681639470857, "alt_km": 519.263650907481, "timestamp": "2025-12-24T20:42:19.744630+00:00", "meta": {"OBJECT_NAME": "TRANSPORTER-15G", "OBJECT_ID": "2025-276G", "EPOCH": "2025-12-24T02:15:12.077856", "MEAN_MOTION": 15.16640453, "ECCENTRICITY": 0.00054885, "INCLINATION": 97.439, "RA_OF_ASC_NODE": 69.6259, "ARG_OF_PERICENTER": 244.535, "MEAN_ANOMALY": 115.5316, "EPHEMERIS_TYPE": 0, "CLASSIFICATION_TYPE": "U", "NORAD_CAT_ID": 66672, "ELEMENT_SET_NO": 999, "REV_AT_EPOCH": 384, "BSTAR": 0.00049752614, "MEAN_MOTION_DOT": 9.673e-05, "MEAN_MOTION_DDOT": 0}, "tle": {"line1": "1 66672U 25276G   25358.09388979  .00009673  00000+0  49753-3 0  9990", "line2": "2 66672  97.4390  69.6259 0005488 244.5350 115.5316 15.16640453  3848"}}, "geometry": {"type": "Point", "coordinates": [-120.20681639470857, -54.58073163582472]}}, {"type": "Feature", "properties": {"norad_id": 66673, "name": "TRANSPORTER-15H", "group": "last-30-days", "lat": -77.52726100319757, "lon": -145.80921093516596, "alt_km": 517.5262768491857, "timestamp": "2025-12-24T20:42:19.744642+00:00", "meta": {"OBJECT_NAME": "TRANSPORTER-15H", "OBJECT_ID": "2025-276H", "EPOCH": "2025-12-24T05:19:01.435296", "MEAN_MOTION": 15.17192698, "ECCENTRICITY": 0.00058973, "INCLINATION": 97.4358, "RA_OF_ASC_NODE": 69.7501, "ARG_OF_PERICENTER": 263.31, "MEAN_ANOMALY": 96.7462, "EPHEMERIS_TYPE": 0, "CLASSIFICATION_TYPE": "U", "NORAD_CAT_ID": 66673, "ELEMENT_SET_NO": 999, "REV_AT_EPOCH": 386, "BSTAR": 0.0011480745, "MEAN_MOTION_DOT": 0.00022806, "MEAN_MOTION_DDOT": 0}, "tle": {"line1": "1 66673U 25276H   25358.22154439  .00022806  00000+0  11481-2 0  9997", "line2": "2 66673  97.4358  69.7501 0005897 263.3100  96.7462 15.17192698  3868"}}, "geometry": {"type": "Point", "coordinates": [-145.80921093516596, -77.52726100319757]}}, {"type": "Feature", "properties": {"norad_id": 66674, "name": "TRANSPORTER-15J", "group": "last-30-days", "lat": -22.124113863453797, "lon": -112.68532630432313, "alt_km": 538.5865289130252, "timestamp": "2025-12-24T20:42:19.744654+00:00", "meta": {"OBJECT_NAME": "TRANSPORTER-15J", "OBJECT_ID": "2025-276J", "EPOCH": "2025-12-21T10:53:16.478880", "MEAN_MOTION": 15.15191397, "ECCENTRICITY": 0.00065005, "INCLINATION": 97.4372, "RA_OF_ASC_NODE": 67.0325, "ARG_OF_PERICENTER": 333.1103, "MEAN_ANOMALY": 26.9792, "EPHEMERIS_TYPE": 0, "CLASSIFICATION_TYPE": "U", "NORAD_CAT_ID": 66674, "ELEMENT_SET_NO": 999, "REV_AT_EPOCH": 344, "BSTAR": -0.028180021, "MEAN_MOTION_DOT": -0.00494676, "MEAN_MOTION_DDOT": 0}, "tle": {"line1": "1 66674U 25276J   25355.45366295 -.00494676  00000+0 -28180-1 0  9998", "line2": "2 66674  97.4372  67.0325 0006500 333.1103  26.9792 15.15191397  3449"}}, "geometry": {"type": "Point", "coordinates": [-112.68532630432313, -22.124113863453797]}}, {"type": "Feature", "properties": {"norad_id": 66675, "name": "TRANSPORTER-15K", "group": "last-30-days", "lat": -76.6171715993751, "lon": -142.9196725442374, "alt_km": 518.5714369007483, "timestamp": "2025-12-24T20:42:19.744664+00:00", "meta": {"OBJECT_NAME": "TRANSPORTER-15K", "OBJECT_ID": "2025-276K", "EPOCH": "2025-12-24T03:44:14.687520", "MEAN_MOTION": 15.17037385, "ECCENTRICITY": 0.00051452, "INCLINATION": 97.4382, "RA_OF_ASC_NODE": 69.6935, "ARG_OF_PERICENTER": 253.7464, "MEAN_ANOMALY": 106.3204, "EPHEMERIS_TYPE": 0, "CLASSIFICATION_TYPE": "U", "NORAD_CAT_ID": 66675, "ELEMENT_SET_NO": 999, "REV_AT_EPOCH": 385, "BSTAR": 0.00068788014, "MEAN_MOTION_DOT": 0.00013559, "MEAN_MOTION_DDOT": 0}, "tle": {"line1": "1 66675U 25276K   25358.15572555  .00013559  00000+0  68788-3 0  9992", "line2": "2 66675  97.4382  69.6935 0005145 253.7464 106.3204 15.17037385  3851"}}, "geometry": {"type": "Point", "coordinates": [-142.9196725442374, -76.6171715993751]}}, {"type": "Feature", "properties": {"norad_id": 66676, "name": "TRANSPORTER-15L", "group": "last-30-days", "lat": -60.61538504472924, "lon": -123.03479639683631, "alt_km": 524.312564345234, "timestamp": "2025-12-24T20:42:19.744675+00:00", "meta": {"OBJECT_NAME": "TRANSPORTER-15L", "OBJECT_ID": "2025-276L", "EPOCH": "2025-12-24T02:12:58.234752", "MEAN_MOTION": 15.15865945, "ECCENTRICITY": 0.00033167, "INCLINATION": 97.4383, "RA_OF_ASC_NODE": 69.6259, "ARG_OF_PERICENTER": 196.3095, "MEAN_ANOMALY": 163.8032, "EPHEMERIS_TYPE": 0, "CLASSIFICATION_TYPE": "U", "NORAD_CAT_ID": 66676, "ELEMENT_SET_NO": 999, "REV_AT_EPOCH": 384, "BSTAR": -0.0033340538, "MEAN_MOTION_DOT": -0.00063262, "MEAN_MOTION_DDOT": 0}, "tle": {"line1": "1 66676U 25276L   25358.09234068 -.00063262  00000+0 -33341-2 0  9994", "line2": "2 66676  97.4383  69.6259 0003316 196.3095 163.8032 15.15865945  3847"}}, "geometry": {"type": "Point", "coordinates": [-123.03479639683631, -60.61538504472924]}}]}